ONEWEB-0319             
1 49105U 21075AG  25290.25360103  .00000080  00000+0  17179-3 0  9997
2 49105  87.9101  54.1845 0001695  83.1420 276.9904 13.17647932201613
ONEWEB-0323             
1 49106U 21075AH  25290.30157187  .00000480  00000+0  12993-2 0  9992
2 49106  87.8964  38.8930 0001799  77.9140 282.2190 13.12443937202699
ONEWEB-0329             
1 49107U 21075AJ  25290.26204192  .00000243  00000+0  59178-3 0  9991
2 49107  87.9139  54.1866 0001811  91.6190 268.5149 13.17650226201592
ONEWEB-0330             
1 49108U 21075AK  25290.26286669  .00000021  00000+0  20930-4 0  9990
2 49108  87.9098  54.1905 0001943  96.2085 263.9268 13.17650825201632
ONEWEB-0292             
1 49186U 21083A   25290.23520354 -.00000063  00000+0 -20699-3 0  9993
2 49186  87.9045   8.5446 0001748  96.1928 263.9400 13.13471154199031
ONEWEB-0303             
1 49187U 21083B   25290.27159176 -.00000134  00000+0 -37163-3 0  9991
2 49187  87.9237  23.6957 0001729  95.1086 265.0243 13.18685727197969
ONEWEB-0306             
1 49188U 21083C   25290.26169533 -.00000006  00000+0 -47828-4 0  9997
2 49188  87.9233  23.6829 0001933 106.7657 253.3687 13.18685102198009
ONEWEB-0307             
1 49189U 21083D   25290.22927724  .00000084  00000+0  19471-3 0  9994
2 49189  87.9036   8.5400 0001797 101.3526 258.7806 13.13468295199035
